H1 CPF 01  gfz 2022 05 12 00  6321 tandemx   
H2 1003001  6202 36605    2022 05 12 00 59 42 2022 05 17 00 00 42   120 1 1  0 0 0
H9
10 0 59714  75582.000000  0     256547.251    998924.830  -6817938.998
10 0 59714  75702.000000  0     909011.718    353100.685  -6826217.820
10 0 59714  75822.000000  0    1534287.504   -310015.739  -6715478.728
10 0 59714  75942.000000  0    2121346.350   -978371.535  -6487625.781
10 0 59714  76062.000000  0    2660021.207  -1639628.392  -6146579.276
10 0 59714  76182.000000  0    3141180.261  -2281384.500  -5698215.461
10 0 59714  76302.000000  0    3556882.480  -2891403.179  -5150277.343
10 0 59714  76422.000000  0    3900512.904  -3457846.644  -4512251.772
10 0 59714  76542.000000  0    4166891.376  -3969506.116  -3795214.482
10 0 59714  76662.000000  0    4352355.679  -4416025.733  -3011648.269
10 0 59714  76782.000000  0    4454817.474  -4788116.788  -2175232.874
10 0 59714  76902.000000  0    4473787.793  -5077756.450  -1300609.272
10 0 59714  77022.000000  0    4410369.774  -5278365.700   -403121.929
10 0 59714  77142.000000  0    4267219.124  -5384960.092    501455.307
10 0 59714  77262.000000  0    4048473.032  -5394270.674   1397203.514
10 0 59714  77382.000000  0    3759648.555  -5304830.293   2268348.649
10 0 59714  77502.000000  0    3407512.121  -5117022.810   3099547.666
10 0 59714  77622.000000  0    2999925.424  -4833095.987   3876166.035
10 0 59714  77742.000000  0    2545670.926  -4457135.521   4584540.656
10 0 59714  77862.000000  0    2054262.061  -3995002.450   5212222.878
10 0 59714  77982.000000  0    1535742.352  -3454235.630   5748196.840
10 0 59714  78102.000000  0    1000477.898  -2843921.241   6183070.227
10 0 59714  78222.000000  0     458948.310  -2174533.553   6509232.859
10 0 59714  78342.000000  0     -78459.067  -1457750.659   6720982.944
10 0 59714  78462.000000  0    -601647.417   -706248.616   6814621.417
10 0 59714  78582.000000  0   -1100999.032     66524.462   6788513.085
10 0 59714  78702.000000  0   -1567551.500    846589.087   6643113.133
10 0 59714  78822.000000  0   -1993158.117   1619686.673   6380959.415
10 0 59714  78942.000000  0   -2370630.628   2371539.282   6006630.947
10 0 59714  79062.000000  0   -2693861.624   3088113.572   5526672.843
10 0 59714  79182.000000  0   -2957925.218   3755884.572   4949488.307
10 0 59714  79302.000000  0   -3159154.984   4362095.075   4285197.861
10 0 59714  79422.000000  0   -3295196.017   4895005.467   3545466.459
10 0 59714  79542.000000  0   -3365030.287   5344128.619   2743300.684
10 0 59714  79662.000000  0   -3368974.075   5700443.422   1892818.873
10 0 59714  79782.000000  0   -3308647.986   5956581.264   1008999.103
10 0 59714  79902.000000  0   -3186919.801   6106983.093    107410.407
10 0 59714  80022.000000  0   -3007821.454   6148021.771   -796069.927
10 0 59714  80142.000000  0   -2776442.599   6078084.958  -1685546.262
10 0 59714  80262.000000  0   -2498801.174   5897615.480  -2545395.319
10 0 59714  80382.000000  0   -2181695.438   5609108.166  -3360545.955
10 0 59714  80502.000000  0   -1832544.212   5217068.892  -4116745.232
10 0 59714  80622.000000  0   -1459218.069   4727933.123  -4800806.927
10 0 59714  80742.000000  0   -1069866.374   4149949.182  -5400835.575
10 0 59714  80862.000000  0    -672743.430   3493030.161  -5906425.952
10 0 59714  80982.000000  0    -276036.782   2768575.469  -6308834.567
10 0 59714  81102.000000  0     112297.882   1989266.733  -6601118.961
10 0 59714  81222.000000  0     484691.334   1168844.817  -6778246.097
10 0 59714  81342.000000  0     834103.910    321869.339  -6837170.696
10 0 59714  81462.000000  0    1154155.029   -536535.380  -6776881.666
10 0 59714  81582.000000  0    1439236.244  -1390944.811  -6598416.269
10 0 59714  81702.000000  0    1684606.876  -2225903.482  -6304843.460
10 0 59714  81822.000000  0    1886472.196  -3026197.358  -5901217.836
10 0 59714  81942.000000  0    2042042.254  -3777127.627  -5394503.443
10 0 59714  82062.000000  0    2149570.438  -4464781.981  -4793464.041
10 0 59714  82182.000000  0    2208370.548  -5076293.938  -4108521.409
10 0 59714  82302.000000  0    2218812.523  -5600088.894  -3351585.721
10 0 59714  82422.000000  0    2182296.203  -6026112.529  -2535856.866
10 0 59714  82542.000000  0    2101203.246  -6346035.333  -1675599.215
10 0 59714  82662.000000  0    1978826.782  -6553426.523   -785892.775
10 0 59714  82782.000000  0    1819283.789  -6643893.844    117634.852
10 0 59714  82902.000000  0    1627407.490  -6615181.174   1019089.837
10 0 59714  83022.000000  0    1408625.689  -6467227.237   1902598.937
10 0 59714  83142.000000  0    1168826.169  -6202177.689   2752600.267
10 0 59714  83262.000000  0     914213.207  -5824351.490   3554125.070
10 0 59714  83382.000000  0     651158.904  -5340165.028   4293067.340
10 0 59714  83502.000000  0     386053.743  -4758015.307   4956435.265
10 0 59714  83622.000000  0     125158.946  -4088124.931   5532580.715
10 0 59714  83742.000000  0    -125534.208  -3342352.389   6011402.003
10 0 59714  83862.000000  0    -360435.678  -2533972.239   6384516.197
10 0 59714  83982.000000  0    -574476.544  -1677432.744   6645398.267
10 0 59714  84102.000000  0    -763214.489   -788095.259   6789489.419
10 0 59714  84222.000000  0    -922923.552    118042.875   6814273.211
10 0 59714  84342.000000  0   -1050666.782   1024636.786   6719316.938
10 0 59714  84462.000000  0   -1144349.725   1915288.566   6506278.378
10 0 59714  84582.000000  0   -1202754.529   2773843.292   6178878.628
10 0 59714  84702.000000  0   -1225554.745   3584682.557   5742841.187
10 0 59714  84822.000000  0   -1213309.987   4333010.990   5205797.110
10 0 59714  84942.000000  0   -1167440.257   5005130.872   4577157.992
10 0 59714  85062.000000  0   -1090181.469   5588700.843   3867955.899
10 0 59714  85182.000000  0    -984521.418   6072970.234   3090652.727
10 0 59714  85302.000000  0    -854120.477   6448988.042   2258924.051
10 0 59714  85422.000000  0    -703214.575   6709779.403   1387414.330
10 0 59714  85542.000000  0    -536504.065   6850481.766    491473.508
10 0 59714  85662.000000  0    -359032.028   6868440.603   -413120.140
10 0 59714  85782.000000  0    -176054.757   6763261.896  -1310447.160
10 0 59714  85902.000000  0       7091.992   6536816.537  -2184737.529
10 0 59714  86022.000000  0     185126.491   6193198.100  -3020654.276
10 0 59714  86142.000000  0     352951.805   5738639.014  -3803566.037
10 0 59714  86262.000000  0     505781.340   5181385.893  -4519804.187
10 0 59714  86382.000000  0     639255.783   4531537.309  -5156898.830
10 0 59715    102.000000  0     749548.717   3800849.170  -5703789.525
10 0 59715    222.000000  0     833458.192   3002512.512  -6151008.404
10 0 59715    342.000000  0     888482.670   2150908.559  -6490833.087
10 0 59715    462.000000  0     912880.668   1261347.496  -6717407.833
10 0 59715    582.000000  0     905712.464    349795.248  -6826834.677
10 0 59715    702.000000  0     866864.101   -567408.729  -6817233.429
10 0 59715    822.000000  0     797052.666  -1473838.390  -6688769.373
10 0 59715    942.000000  0     697813.334  -2353266.758  -6443649.272
10 0 59715   1062.000000  0     571468.812  -3189948.422  -6086089.448
10 0 59715   1182.000000  0     421080.005  -3968898.913  -5622252.422
10 0 59715   1302.000000  0     250379.952  -4676162.158  -5060149.855
10 0 59715   1422.000000  0      63691.865  -5299063.138  -4409516.028
10 0 59715   1542.000000  0    -134168.415  -5826442.346  -3681650.567
10 0 59715   1662.000000  0    -338003.163  -6248865.876  -2889230.874
10 0 59715   1782.000000  0    -542354.681  -6558806.194  -2046097.882
10 0 59715   1902.000000  0    -741635.833  -6750790.153  -1167016.703
10 0 59715   2022.000000  0    -930265.891  -6821507.770   -267415.728
10 0 59715   2142.000000  0   -1102808.443  -6769878.538    636889.315
10 0 59715   2262.000000  0   -1254108.144  -6597073.900   1529980.521
10 0 59715   2382.000000  0   -1379422.702  -6306494.643   2396127.130
10 0 59715   2502.000000  0   -1474546.157  -5903702.491   3220071.971
10 0 59715   2622.000000  0   -1535920.231  -5396308.139   3987308.271
10 0 59715   2742.000000  0   -1560730.261  -4793818.326   4684339.612
10 0 59715   2862.000000  0   -1546985.011  -4107448.935   5298918.370
10 0 59715   2982.000000  0   -1493578.440  -3349907.107   5820261.272
10 0 59715   3102.000000  0   -1400330.863  -2535145.515   6239235.081
10 0 59715   3222.000000  0   -1268008.743  -1678098.685   6548509.607
10 0 59715   3342.000000  0   -1098324.452   -794406.151   6742680.103
10 0 59715   3462.000000  0    -893916.384     99875.464   6818356.411
10 0 59715   3582.000000  0    -658308.630    988564.026   6774218.127
10 0 59715   3702.000000  0    -395849.929   1855644.357   6611036.789
10 0 59715   3822.000000  0    -111633.392   2685556.645   6331663.085
10 0 59715   3942.000000  0     188601.411   3463475.677   5940979.881
10 0 59715   4062.000000  0     498581.906   4175577.809   5445822.066
10 0 59715   4182.000000  0     811630.561   4809290.792   4854862.709
10 0 59715   4302.000000  0    1120805.641   5353522.583   4178466.721
10 0 59715   4422.000000  0    1419049.829   5798862.848   3428512.934
10 0 59715   4542.000000  0    1699346.912   6137756.305   2618190.918
10 0 59715   4662.000000  0    1954882.515   6364642.022   1761765.117
10 0 59715   4782.000000  0    2179200.822   6476051.354    874318.732
10 0 59715   4902.000000  0    2366357.565   6470663.502    -28519.611
10 0 59715   5022.000000  0    2511062.910   6349318.050   -930858.643
10 0 59715   5142.000000  0    2608811.948   6114984.972  -1816832.182
10 0 59715   5262.000000  0    2655999.576   5772692.167  -2670885.429
10 0 59715   5382.000000  0    2650016.529   5329412.703  -3478054.263
10 0 59715   5502.000000  0    2589324.018   4793913.544  -4224230.993
10 0 59715   5622.000000  0    2473504.947   4176571.529  -4896409.677
99
